{
    "links": {
        "self": "http://www.neowsapp.com/rest/v1/neo/3647845?api_key=iIulBulltgU6a56xZRHN4H3l9WmuAYTsLGpBGhQ2"
    },
    "id": "3647845",
    "neo_reference_id": "3647845",
    "name": "(2013 RG36)",
    "designation": "2013 RG36",
    "nasa_jpl_url": "http://ssd.jpl.nasa.gov/sbdb.cgi?sstr=3647845",
    "absolute_magnitude_h": 19.9,
    "estimated_diameter": {
        "kilometers": {
            "estimated_diameter_min": 0.2783267681,
            "estimated_diameter_max": 0.6223575734
        },
        "meters": {
            "estimated_diameter_min": 278.3267680719,
            "estimated_diameter_max": 622.3575733667
        },
        "miles": {
            "estimated_diameter_min": 0.1729441822,
            "estimated_diameter_max": 0.3867149477
        },
        "feet": {
            "estimated_diameter_min": 913.1455937611,
            "estimated_diameter_max": 2041.8556210042
        }
    },
    "is_potentially_hazardous_asteroid": false,
    "close_approach_data": [
        {
            "close_approach_date": "2013-08-13",
            "close_approach_date_full": "2013-Aug-13 22:46",
            "epoch_date_close_approach": 1376433960000,
            "relative_velocity": {
                "kilometers_per_second": "28.6655274351",
                "kilometers_per_hour": "103195.8987662804",
                "miles_per_hour": "64121.9183195258"
            },
            "miss_distance": {
                "astronomical": "0.4702419025",
                "lunar": "182.9241000725",
                "kilometers": "70347186.998747675",
                "miles": "43711715.061860915"
            },
            "orbiting_body": "Earth"
        }
    ],
    "orbital_data": {
        "orbit_id": "4",
        "orbit_determination_date": "2017-04-06 08:44:46",
        "first_observation_date": "2013-09-05",
        "last_observation_date": "2013-09-10",
        "data_arc_in_days": 5,
        "observations_used": 17,
        "orbit_uncertainty": "9",
        "minimum_orbit_intersection": ".1207",
        "jupiter_tisserand_invariant": "3.624",
        "epoch_osculation": "2456541.5",
        "eccentricity": ".5951837346174752",
        "semi_major_axis": "1.946705440668389",
        "inclination": "14.58773628836563",
        "ascending_node_longitude": "266.0986809855414",
        "orbital_period": "992.084788815407",
        "perihelion_distance": ".7880580262912196",
        "perihelion_argument": "326.801117282875",
        "aphelion_distance": "3.105352855045559",
        "perihelion_time": "2456477.055661867236",
        "mean_anomaly": "23.38505941160212",
        "mean_motion": ".3628722101765675",
        "equinox": "J2000",
        "orbit_class": {
            "orbit_class_type": "APO",
            "orbit_class_description": "Near-Earth asteroid orbits which cross the Earth’s orbit similar to that of 1862 Apollo",
            "orbit_class_range": "a (semi-major axis) > 1.0 AU; q (perihelion) < 1.017 AU"
        }
    },
    "is_sentry_object": false
}